STARLINK-6283           
1 56406U 23061AJ  26004.19830998  .00003474  00000+0  27201-3 0  9994
2 56406  43.0034 174.8790 0001439 260.8061  99.2619 15.02548202147202
STARLINK-6282           
1 56407U 23061AK  26003.74405111  .00001076  00000+0  94706-4 0  9991
2 56407  43.0040 177.4942 0001206 260.2822  99.7885 15.02529359147133
STARLINK-6289           
1 56408U 23061AL  26003.85813945 -.00000353  00000+0 -11075-4 0  9999
2 56408  43.0033 176.6192 0001244 273.1644  86.9056 15.02535912147153
STARLINK-6241           
1 56409U 23061AM  26003.87146828  .00003512  00000+0  27502-3 0  9990
2 56409  43.0034 176.7292 0001207 254.8766 105.1943 15.02519677147156
STARLINK-6281           
1 56410U 23061AN  26003.52464206  .00000119  00000+0  23884-4 0  9997
2 56410  43.0012 178.4244 0001246 271.5646  88.5053 15.02535498147106
STARLINK-6279           
1 56411U 23061AP  26003.86923728 -.00000185  00000+0  14036-5 0  9998
2 56411  43.0034 176.7094 0001250 272.4527  87.6172 15.02541684147159
STARLINK-6278           
1 56412U 23061AQ  26003.78501802  .00001800  00000+0  14831-3 0  9990
2 56412  43.0037 176.9356 0001473 249.1969 110.8716 15.02529870147149
STARLINK-6258           
1 56413U 23061AR  26004.19274890  .00000618  00000+0  60809-4 0  9994
2 56413  43.0033 174.8375 0001258 261.7654  98.3045 15.02538583147209
STARLINK-5136           
1 56414U 23061AS  26003.51465041  .00000557  00000+0  56295-4 0  9996
2 56414  43.0002 178.3456 0001783 292.4956  67.5698 15.02535810147105
STARLINK-6260           
1 56416U 23061AU  26003.49838138 -.00000264  00000+0 -44934-5 0  9991
2 56416  43.0046 166.0827 0001506 271.3443  88.7227 15.02533214147245
STARLINK-6261           
1 56417U 23061AV  26003.78168310  .00008616  00000+0  65279-3 0  9992
2 56417  43.0018 176.9130 0001130 266.1434  93.9280 15.02497099147143
STARLINK-5356           
1 56418U 23061AW  26003.81744950 -.00001413  00000+0 -89573-4 0  9991
2 56418  43.0020 164.1750 0001021 272.5200  87.5526 15.02537579147291
STARLINK-5350           
1 56419U 23061AX  26003.77834672  .00003748  00000+0  29250-3 0  9994
2 56419  43.0028 176.8891 0001368 267.1143  92.9542 15.02523591147147
STARLINK-6272           
1 56420U 23061AY  26003.74763978  .00000990  00000+0  88370-4 0  9998
2 56420  42.9997 164.5057 0001405 277.3522  82.7160 15.02537549147282
STARLINK-6270           
1 56421U 23061AZ  26003.76761737  .00000722  00000+0  68522-4 0  9992
2 56421  43.0019 164.6555 0001410 276.1832  83.8849 15.02538239147284
STARLINK-6236           
1 56422U 23061BA  26003.74098299 -.00000087  00000+0  86051-5 0  9990
2 56422  43.0029 164.4605 0001390 270.5257  89.5426 15.02534196147288
