[{"OBJECT_NAME":"STARLINK-6283","OBJECT_ID":"2023-061AJ","EPOCH":"2026-01-04T04:45:33.982272","MEAN_MOTION":15.02548202,"ECCENTRICITY":0.00014391,"INCLINATION":43.0034,"RA_OF_ASC_NODE":174.879,"ARG_OF_PERICENTER":260.8061,"MEAN_ANOMALY":99.2619,"EPHEMERIS_TYPE":0,"CLASSIFICATION_TYPE":"U","NORAD_CAT_ID":56406,"ELEMENT_SET_NO":999,"REV_AT_EPOCH":14720,"BSTAR":0.00027200918,"MEAN_MOTION_DOT":3.474e-5,"MEAN_MOTION_DDOT":0},{"OBJECT_NAME":"STARLINK-6282","OBJECT_ID":"2023-061AK","EPOCH":"2026-01-03T17:51:26.015904","MEAN_MOTION":15.02529359,"ECCENTRICITY":0.00012062,"INCLINATION":43.004,"RA_OF_ASC_NODE":177.4942,"ARG_OF_PERICENTER":260.2822,"MEAN_ANOMALY":99.7885,"EPHEMERIS_TYPE":0,"CLASSIFICATION_TYPE":"U","NORAD_CAT_ID":56407,"ELEMENT_SET_NO":999,"REV_AT_EPOCH":14713,"BSTAR":9.4705751e-5,"MEAN_MOTION_DOT":1.076e-5,"MEAN_MOTION_DDOT":0},{"OBJECT_NAME":"STARLINK-6289","OBJECT_ID":"2023-061AL","EPOCH":"2026-01-03T20:35:43.248480","MEAN_MOTION":15.02535912,"ECCENTRICITY":0.0001244,"INCLINATION":43.0033,"RA_OF_ASC_NODE":176.6192,"ARG_OF_PERICENTER":273.1644,"MEAN_ANOMALY":86.9056,"EPHEMERIS_TYPE":0,"CLASSIFICATION_TYPE":"U","NORAD_CAT_ID":56408,"ELEMENT_SET_NO":999,"REV_AT_EPOCH":14715,"BSTAR":-1.1075e-5,"MEAN_MOTION_DOT":-3.53e-6,"MEAN_MOTION_DDOT":0},{"OBJECT_NAME":"STARLINK-6241","OBJECT_ID":"2023-061AM","EPOCH":"2026-01-03T20:54:54.859392","MEAN_MOTION":15.02519677,"ECCENTRICITY":0.0001207,"INCLINATION":43.0034,"RA_OF_ASC_NODE":176.7292,"ARG_OF_PERICENTER":254.8766,"MEAN_ANOMALY":105.1943,"EPHEMERIS_TYPE":0,"CLASSIFICATION_TYPE":"U","NORAD_CAT_ID":56409,"ELEMENT_SET_NO":999,"REV_AT_EPOCH":14715,"BSTAR":0.00027502,"MEAN_MOTION_DOT":3.512e-5,"MEAN_MOTION_DDOT":0},{"OBJECT_NAME":"STARLINK-6281","OBJECT_ID":"2023-061AN","EPOCH":"2026-01-03T12:35:29.073984","MEAN_MOTION":15.02535498,"ECCENTRICITY":0.00012469,"INCLINATION":43.0012,"RA_OF_ASC_NODE":178.4244,"ARG_OF_PERICENTER":271.5646,"MEAN_ANOMALY":88.5053,"EPHEMERIS_TYPE":0,"CLASSIFICATION_TYPE":"U","NORAD_CAT_ID":56410,"ELEMENT_SET_NO":999,"REV_AT_EPOCH":14710,"BSTAR":2.3884473e-5,"MEAN_MOTION_DOT":1.19e-6,"MEAN_MOTION_DDOT":0},{"OBJECT_NAME":"STARLINK-6279","OBJECT_ID":"2023-061AP","EPOCH":"2026-01-03T20:51:42.100992","MEAN_MOTION":15.02541684,"ECCENTRICITY":0.000125,"INCLINATION":43.0034,"RA_OF_ASC_NODE":176.7094,"ARG_OF_PERICENTER":272.4527,"MEAN_ANOMALY":87.6172,"EPHEMERIS_TYPE":0,"CLASSIFICATION_TYPE":"U","NORAD_CAT_ID":56411,"ELEMENT_SET_NO":999,"REV_AT_EPOCH":14715,"BSTAR":1.4036e-6,"MEAN_MOTION_DOT":-1.85e-6,"MEAN_MOTION_DDOT":0},{"OBJECT_NAME":"STARLINK-6278","OBJECT_ID":"2023-061AQ","EPOCH":"2026-01-03T18:50:25.556928","MEAN_MOTION":15.0252987,"ECCENTRICITY":0.0001473,"INCLINATION":43.0037,"RA_OF_ASC_NODE":176.9356,"ARG_OF_PERICENTER":249.1969,"MEAN_ANOMALY":110.8716,"EPHEMERIS_TYPE":0,"CLASSIFICATION_TYPE":"U","NORAD_CAT_ID":56412,"ELEMENT_SET_NO":999,"REV_AT_EPOCH":14714,"BSTAR":0.00014831425,"MEAN_MOTION_DOT":1.8e-5,"MEAN_MOTION_DDOT":0},{"OBJECT_NAME":"STARLINK-6258","OBJECT_ID":"2023-061AR","EPOCH":"2026-01-04T04:37:33.504960","MEAN_MOTION":15.02538583,"ECCENTRICITY":0.00012588,"INCLINATION":43.0033,"RA_OF_ASC_NODE":174.8375,"ARG_OF_PERICENTER":261.7654,"MEAN_ANOMALY":98.3045,"EPHEMERIS_TYPE":0,"CLASSIFICATION_TYPE":"U","NORAD_CAT_ID":56413,"ELEMENT_SET_NO":999,"REV_AT_EPOCH":14720,"BSTAR":6.0809102e-5,"MEAN_MOTION_DOT":6.18e-6,"MEAN_MOTION_DDOT":0},{"OBJECT_NAME":"STARLINK-5136","OBJECT_ID":"2023-061AS","EPOCH":"2026-01-03T12:21:05.795424","MEAN_MOTION":15.0253581,"ECCENTRICITY":0.00017838,"INCLINATION":43.0002,"RA_OF_ASC_NODE":178.3456,"ARG_OF_PERICENTER":292.4956,"MEAN_ANOMALY":67.5698,"EPHEMERIS_TYPE":0,"CLASSIFICATION_TYPE":"U","NORAD_CAT_ID":56414,"ELEMENT_SET_NO":999,"REV_AT_EPOCH":14710,"BSTAR":5.6294858e-5,"MEAN_MOTION_DOT":5.57e-6,"MEAN_MOTION_DDOT":0},{"OBJECT_NAME":"STARLINK-6260","OBJECT_ID":"2023-061AU","EPOCH":"2026-01-03T11:57:40.151232","MEAN_MOTION":15.02533214,"ECCENTRICITY":0.00015062,"INCLINATION":43.0046,"RA_OF_ASC_NODE":166.0827,"ARG_OF_PERICENTER":271.3443,"MEAN_ANOMALY":88.7227,"EPHEMERIS_TYPE":0,"CLASSIFICATION_TYPE":"U","NORAD_CAT_ID":56416,"ELEMENT_SET_NO":999,"REV_AT_EPOCH":14724,"BSTAR":-4.493418e-6,"MEAN_MOTION_DOT":-2.64e-6,"MEAN_MOTION_DDOT":0},{"OBJECT_NAME":"STARLINK-6261","OBJECT_ID":"2023-061AV","EPOCH":"2026-01-03T18:45:37.419840","MEAN_MOTION":15.02497099,"ECCENTRICITY":0.000113,"INCLINATION":43.0018,"RA_OF_ASC_NODE":176.913,"ARG_OF_PERICENTER":266.1434,"MEAN_ANOMALY":93.928,"EPHEMERIS_TYPE":0,"CLASSIFICATION_TYPE":"U","NORAD_CAT_ID":56417,"ELEMENT_SET_NO":999,"REV_AT_EPOCH":14714,"BSTAR":0.0006527922,"MEAN_MOTION_DOT":8.616e-5,"MEAN_MOTION_DDOT":0},{"OBJECT_NAME":"STARLINK-5356","OBJECT_ID":"2023-061AW","EPOCH":"2026-01-03T19:37:07.636800","MEAN_MOTION":15.02537579,"ECCENTRICITY":0.00010218,"INCLINATION":43.002,"RA_OF_ASC_NODE":164.175,"ARG_OF_PERICENTER":272.52,"MEAN_ANOMALY":87.5526,"EPHEMERIS_TYPE":0,"CLASSIFICATION_TYPE":"U","NORAD_CAT_ID":56418,"ELEMENT_SET_NO":999,"REV_AT_EPOCH":14729,"BSTAR":-8.9573385e-5,"MEAN_MOTION_DOT":-1.413e-5,"MEAN_MOTION_DDOT":0},{"OBJECT_NAME":"STARLINK-5350","OBJECT_ID":"2023-061AX","EPOCH":"2026-01-03T18:40:49.156608","MEAN_MOTION":15.02523591,"ECCENTRICITY":0.00013685,"INCLINATION":43.0028,"RA_OF_ASC_NODE":176.8891,"ARG_OF_PERICENTER":267.1143,"MEAN_ANOMALY":92.9542,"EPHEMERIS_TYPE":0,"CLASSIFICATION_TYPE":"U","NORAD_CAT_ID":56419,"ELEMENT_SET_NO":999,"REV_AT_EPOCH":14714,"BSTAR":0.00029250261,"MEAN_MOTION_DOT":3.748e-5,"MEAN_MOTION_DDOT":0},{"OBJECT_NAME":"STARLINK-6272","OBJECT_ID":"2023-061AY","EPOCH":"2026-01-03T17:56:36.076992","MEAN_MOTION":15.02537549,"ECCENTRICITY":0.00014056,"INCLINATION":42.9997,"RA_OF_ASC_NODE":164.5057,"ARG_OF_PERICENTER":277.3522,"MEAN_ANOMALY":82.716,"EPHEMERIS_TYPE":0,"CLASSIFICATION_TYPE":"U","NORAD_CAT_ID":56420,"ELEMENT_SET_NO":999,"REV_AT_EPOCH":14728,"BSTAR":8.8369834e-5,"MEAN_MOTION_DOT":9.9e-6,"MEAN_MOTION_DDOT":0},{"OBJECT_NAME":"STARLINK-6270","OBJECT_ID":"2023-061AZ","EPOCH":"2026-01-03T18:25:22.140768","MEAN_MOTION":15.02538239,"ECCENTRICITY":0.00014103,"INCLINATION":43.0019,"RA_OF_ASC_NODE":164.6555,"ARG_OF_PERICENTER":276.1832,"MEAN_ANOMALY":83.8849,"EPHEMERIS_TYPE":0,"CLASSIFICATION_TYPE":"U","NORAD_CAT_ID":56421,"ELEMENT_SET_NO":999,"REV_AT_EPOCH":14728,"BSTAR":6.8522444e-5,"MEAN_MOTION_DOT":7.22e-6,"MEAN_MOTION_DDOT":0},{"OBJECT_NAME":"STARLINK-6236","OBJECT_ID":"2023-061BA","EPOCH":"2026-01-03T17:47:00.930336","MEAN_MOTION":15.02534196,"ECCENTRICITY":0.00013908,"INCLINATION":43.0029,"RA_OF_ASC_NODE":164.4605,"ARG_OF_PERICENTER":270.5257,"MEAN_ANOMALY":89.5426,"EPHEMERIS_TYPE":0,"CLASSIFICATION_TYPE":"U","NORAD_CAT_ID":56422,"ELEMENT_SET_NO":999,"REV_AT_EPOCH":14728,"BSTAR":8.605062e-6,"MEAN_MOTION_DOT":-8.7e-7,"MEAN_MOTION_DDOT":0}]
